H1 CPF 01  gfz 2022 12 13 13  8472 tandemx   
H2 1003001  6202 36605    2022 12 13 12 59 42 2022 12 18 00 00 42   120 1 1  0 0 0
H9
10 0 59928  39582.000000  0    1559315.793  -2610405.119   6170653.535
10 0 59928  39702.000000  0    1687272.070  -3410126.996   5732304.475
10 0 59928  39822.000000  0    1772275.395  -4152160.327   5193141.198
10 0 59928  39942.000000  0    1813958.500  -4822765.362   4562610.934
10 0 59928  40062.000000  0    1812940.031  -5409443.996   3851778.088
10 0 59928  40182.000000  0    1770792.810  -5901182.805   3073133.244
10 0 59928  40302.000000  0    1689989.741  -6288668.239   2240372.978
10 0 59928  40422.000000  0    1573830.820  -6564471.070   1368157.495
10 0 59928  40542.000000  0    1426352.103  -6723196.994    471848.398
10 0 59928  40662.000000  0    1252218.005  -6761597.794   -432768.848
10 0 59928  40782.000000  0    1056599.020  -6678640.603  -1329773.491
10 0 59928  40902.000000  0     845039.110  -6475528.015  -2203399.993
10 0 59928  41022.000000  0     623316.702  -6155673.431  -3038321.416
10 0 59928  41142.000000  0     397303.974  -5724634.256  -3819922.542
10 0 59928  41262.000000  0     172826.032  -5190003.376  -4534557.266
10 0 59928  41382.000000  0     -44476.313  -4561261.982  -5169783.662
10 0 59928  41502.000000  0    -249276.247  -3849599.912  -5714573.858
10 0 59928  41622.000000  0    -436680.583  -3067706.685  -6159496.376
10 0 59928  41742.000000  0    -602336.764  -2229538.649  -6496868.274
10 0 59928  41862.000000  0    -742525.752  -1350067.063  -6720876.225
10 0 59928  41982.000000  0    -854239.232   -445012.281  -6827666.665
10 0 59928  42102.000000  0    -935239.790    469433.410  -6815404.920
10 0 59928  42222.000000  0    -984103.452   1376888.456  -6684302.055
10 0 59928  42342.000000  0   -1000244.245   2261067.851  -6436611.603
10 0 59928  42462.000000  0    -983920.266   3106067.992  -6076595.575
10 0 59928  42582.000000  0    -936221.196   3896649.073  -5610460.250
10 0 59928  42702.000000  0    -859037.311   4618509.023  -5046259.352
10 0 59928  42822.000000  0    -755010.484   5258545.316  -4393766.813
10 0 59928  42942.000000  0    -627468.149   5805100.042  -3664317.743
10 0 59928  43062.000000  0    -480340.704   6248181.640  -2870619.709
10 0 59928  43182.000000  0    -318063.890   6579659.191  -2026537.506
10 0 59928  43302.000000  0    -145468.467   6793424.456  -1146853.037
10 0 59928  43422.000000  0      32340.610   6885516.380   -247004.864
10 0 59928  43542.000000  0     210113.037   6854204.467    657187.670
10 0 59928  43662.000000  0     382586.432   6700028.113   1549810.648
10 0 59928  43782.000000  0     544619.814   6425788.988   2415145.317
10 0 59928  43902.000000  0     691323.392   6036497.008   3237952.672
10 0 59928  44022.000000  0     818182.367   5539274.027   4003748.324
10 0 59928  44142.000000  0     921173.818   4943217.735   4699062.504
10 0 59928  44262.000000  0     996869.016   4259222.919   5311682.995
10 0 59928  44382.000000  0    1042521.906   3499770.147   5830864.568
10 0 59928  44502.000000  0    1056142.672   2678690.790   6247513.267
10 0 59928  44622.000000  0    1036552.084   1810908.226   6554340.673
10 0 59928  44742.000000  0     983417.493    912161.809   6745985.655
10 0 59928  44862.000000  0     897269.686     -1280.994   6819101.577
10 0 59928  44982.000000  0     779500.202   -912917.723   6772411.301
10 0 59928  45102.000000  0     632338.799  -1806308.990   6606729.403
10 0 59928  45222.000000  0     458811.363  -2665374.759   6324949.079
10 0 59928  45342.000000  0     262678.999  -3474685.468   5931994.710
10 0 59928  45462.000000  0      48359.786  -4219740.386   5434738.021
10 0 59928  45582.000000  0    -179165.013  -4887229.237   4841884.272
10 0 59928  45702.000000  0    -414459.279  -5465276.786   4163828.256
10 0 59928  45822.000000  0    -651754.424  -5943665.083   3412476.530
10 0 59928  45942.000000  0    -885082.503  -6314023.818   2601039.440
10 0 59928  46062.000000  0   -1108415.665  -6569986.114   1743797.685
10 0 59928  46182.000000  0   -1315809.517  -6707307.238    855848.150
10 0 59928  46302.000000  0   -1501548.739  -6723941.430    -47169.907
10 0 59928  46422.000000  0   -1660287.346  -6620072.434   -949359.559
10 0 59928  46542.000000  0   -1787181.603  -6398099.425  -1834854.781
10 0 59928  46662.000000  0   -1878012.723  -6062579.072  -2688107.097
10 0 59928  46782.000000  0   -1929296.453  -5620124.998  -3494164.826
10 0 59928  46902.000000  0   -1938376.361  -5079266.645  -4238938.377
10 0 59928  47022.000000  0   -1903498.419  -4450272.668  -4909445.073
10 0 59928  47142.000000  0   -1823865.944  -3744945.134  -5494029.772
10 0 59928  47262.000000  0   -1699674.147  -2976389.673  -5982559.259
10 0 59928  47382.000000  0   -1532123.532  -2158765.855  -6366588.270
10 0 59928  47502.000000  0   -1323412.049  -1307022.873  -6639493.905
10 0 59928  47622.000000  0   -1076707.290   -436627.141  -6796578.375
10 0 59928  47742.000000  0    -796099.169    436714.506  -6835140.805
10 0 59928  47862.000000  0    -486532.534   1297331.376  -6754517.994
10 0 59928  47982.000000  0    -153722.151   2129862.634  -6556094.330
10 0 59928  48102.000000  0     195948.726   2919524.469  -6243281.650
10 0 59928  48222.000000  0     555547.326   3652369.335  -5821468.528
10 0 59928  48342.000000  0     917724.754   4315531.149  -5297935.907
10 0 59928  48462.000000  0    1274860.977   4897452.906  -4681743.010
10 0 59928  48582.000000  0    1619220.577   5388094.882  -3983582.128
10 0 59928  48702.000000  0    1943115.902   5779116.681  -3215602.113
10 0 59928  48822.000000  0    2239073.863   6064029.659  -2391204.476
10 0 59928  48942.000000  0    2500003.396   6238316.825  -1524813.463
10 0 59928  49062.000000  0    2719359.148   6299515.467   -631622.863
10 0 59928  49182.000000  0    2891296.848   6247258.681    272675.125
10 0 59928  49302.000000  0    3010816.250   6083274.551   1172172.107
10 0 59928  49422.000000  0    3073888.110   5811344.054   2051030.948
10 0 59928  49542.000000  0    3077561.776   5437217.863   2893773.057
10 0 59928  49662.000000  0    3020050.964   4968493.495   3685558.979
10 0 59928  49782.000000  0    2900795.866   4414456.654   4412455.809
10 0 59928  49902.000000  0    2720497.935   3785890.136   5061687.910
10 0 59928  50022.000000  0    2481126.273   3094853.834   5621860.798
10 0 59928  50142.000000  0    2185900.290   2354446.501   6083156.234
10 0 59928  50262.000000  0    1839247.327   1578552.662   6437500.338
10 0 59928  50382.000000  0    1446734.344    781577.211   6678699.492
10 0 59928  50502.000000  0    1014976.461    -21823.777   6802541.159
10 0 59928  50622.000000  0     551524.850   -817011.136   6806863.412
10 0 59928  50742.000000  0      64734.378  -1589629.692   6691591.580
10 0 59928  50862.000000  0    -436387.248  -2325867.328   6458739.075
10 0 59928  50982.000000  0    -942345.975  -3012702.403   6112373.560
10 0 59928  51102.000000  0   -1443339.027  -3638134.529   5658548.400
10 0 59928  51222.000000  0   -1929442.459  -4191396.122   5105203.792
10 0 59928  51342.000000  0   -2390808.222  -4663143.388   4462036.113
10 0 59928  51462.000000  0   -2817865.987  -5045622.152   3740333.726
10 0 59928  51582.000000  0   -3201523.519  -5332803.337   2952780.540
10 0 59928  51702.000000  0   -3533360.298  -5520483.806   2113232.267
10 0 59928  51822.000000  0   -3805811.350  -5606352.099   1236470.246
10 0 59928  51942.000000  0   -4012337.113  -5590016.641    337935.794
10 0 59928  52062.000000  0   -4147574.389  -5472995.146   -566549.044
10 0 59928  52182.000000  0   -4207464.624  -5258665.626  -1461069.187
10 0 59928  52302.000000  0   -4189355.384  -4952178.847  -2329906.021
10 0 59928  52422.000000  0   -4092072.671  -4560335.022  -3157821.036
10 0 59928  52542.000000  0   -3915962.393  -4091429.071  -3930327.150
10 0 59928  52662.000000  0   -3662900.867  -3555069.526  -4633942.213
10 0 59928  52782.000000  0   -3336275.173  -2961975.941  -5256420.898
10 0 59928  52902.000000  0   -2940933.911  -2323759.241  -5786960.810
10 0 59928  53022.000000  0   -2483110.642  -1652691.218  -6216380.250
10 0 59928  53142.000000  0   -1970321.180   -961467.210  -6537266.831
10 0 59928  53262.000000  0   -1411236.735   -262966.681  -6744093.550
10 0 59928  53382.000000  0    -815537.299    429982.780  -6833302.424
10 0 59928  53502.000000  0    -193747.001   1104834.811  -6803359.028
10 0 59928  53622.000000  0     442947.381   1749545.527  -6654775.712
10 0 59928  53742.000000  0    1082891.621   2352782.790  -6390105.659
10 0 59928  53862.000000  0    1714173.528   2904122.586  -6013904.617
10 0 59928  53982.000000  0    2324840.148   3394228.353  -5532660.332
10 0 59928  54102.000000  0    2903121.068   3815009.738  -4954690.744
10 0 59928  54222.000000  0    3437653.866   4159760.067  -4290012.259
10 0 59928  54342.000000  0    3917708.818   4423269.682  -3550177.036
10 0 59928  54462.000000  0    4333407.831   4601911.514  -2748080.506
10 0 59928  54582.000000  0    4675931.683   4693695.945  -1897740.873
10 0 59928  54702.000000  0    4937711.137   4698294.295  -1014056.273
10 0 59928  54822.000000  0    5112597.432   4617028.727   -112540.626
10 0 59928  54942.000000  0    5196004.521   4452828.473    790954.297
10 0 59928  55062.000000  0    5185022.193   4210154.485   1680524.174
10 0 59928  55182.000000  0    5078497.748   3894892.844   2540500.751
10 0 59928  55302.000000  0    4877080.786   3514218.383   3355737.584
10 0 59928  55422.000000  0    4583229.832   3076433.333   4111884.074
10 0 59928  55542.000000  0    4201182.708   2590785.150   4795642.189
10 0 59928  55662.000000  0    3736892.683   2067269.234   5395001.785
10 0 59928  55782.000000  0    3197927.735   1516420.748   5899451.168
10 0 59928  55902.000000  0    2593340.365    949099.599   6300156.482
10 0 59928  56022.000000  0    1933510.129    376274.468   6590109.113
99
